<?xml version="1.0" encoding="UTF-8"?>
<kml xmlns="http://www.opengis.net/kml/2.2">
  <Document>
    <name>marcadores</name>
    <Style id="icon-1899-0288D1-nodesc-normal">
      <IconStyle>
        <color>ffd18802</color>
        <scale>1</scale>
        <Icon>
          <href>https://www.gstatic.com/mapspro/images/stock/503-wht-blank_maps.png</href>
        </Icon>
        <hotSpot x="32" xunits="pixels" y="64" yunits="insetPixels"/>
      </IconStyle>
      <LabelStyle>
        <scale>0</scale>
      </LabelStyle>
      <BalloonStyle>
        <text><![CDATA[<h3>$[name]</h3>]]></text>
      </BalloonStyle>
    </Style>
    <Style id="icon-1899-0288D1-nodesc-highlight">
      <IconStyle>
        <color>ffd18802</color>
        <scale>1</scale>
        <Icon>
          <href>https://www.gstatic.com/mapspro/images/stock/503-wht-blank_maps.png</href>
        </Icon>
        <hotSpot x="32" xunits="pixels" y="64" yunits="insetPixels"/>
      </IconStyle>
      <LabelStyle>
        <scale>1</scale>
      </LabelStyle>
      <BalloonStyle>
        <text><![CDATA[<h3>$[name]</h3>]]></text>
      </BalloonStyle>
    </Style>
    <StyleMap id="icon-1899-0288D1-nodesc">
      <Pair>
        <key>normal</key>
        <styleUrl>#icon-1899-0288D1-nodesc-normal</styleUrl>
      </Pair>
      <Pair>
        <key>highlight</key>
        <styleUrl>#icon-1899-0288D1-nodesc-highlight</styleUrl>
      </Pair>
    </StyleMap>
    <Placemark>
      <name>Aeropuerto Internacional de Keflavík</name>
      <styleUrl>#icon-1899-0288D1-nodesc</styleUrl>
      <Point>
        <coordinates>
          -22.6238372,63.996167,0
        </coordinates>
      </Point>
    </Placemark>
    <Placemark>
      <name>Categoría:Reykjanes</name>
      <styleUrl>#icon-1899-0288D1-nodesc</styleUrl>
      <Point>
        <coordinates>
          -22.6944444,63.8086111,0
        </coordinates>
      </Point>
    </Placemark>
    <Placemark>
      <name>Grindavík</name>
      <styleUrl>#icon-1899-0288D1-nodesc</styleUrl>
      <Point>
        <coordinates>
          -22.4359996,63.8433896,0
        </coordinates>
      </Point>
    </Placemark>
    <Placemark>
      <name>Fagradalsfjall Volcano</name>
      <styleUrl>#icon-1899-0288D1-nodesc</styleUrl>
      <Point>
        <coordinates>
          -22.2693991,63.8902658,0
        </coordinates>
      </Point>
    </Placemark>
    <Placemark>
      <name>Krýsuvík</name>
      <styleUrl>#icon-1899-0288D1-nodesc</styleUrl>
      <Point>
        <coordinates>
          -22.0535714,63.8949273,0
        </coordinates>
      </Point>
    </Placemark>
    <Placemark>
      <name>Hella</name>
      <styleUrl>#icon-1899-0288D1-nodesc</styleUrl>
      <Point>
        <coordinates>
          -20.3933338,63.8325763,0
        </coordinates>
      </Point>
    </Placemark>
    <Placemark>
      <name>Valahnúkur Viewpoint</name>
      <styleUrl>#icon-1899-0288D1-nodesc</styleUrl>
      <Point>
        <coordinates>
          -19.5307266,63.6834349,0
        </coordinates>
      </Point>
    </Placemark>
    <Placemark>
      <name>Landeyjahöfn</name>
      <styleUrl>#icon-1899-0288D1-nodesc</styleUrl>
      <Point>
        <coordinates>
          -20.1170353,63.5308305,0
        </coordinates>
      </Point>
    </Placemark>
    <Placemark>
      <name>Herjólfur</name>
      <styleUrl>#icon-1899-0288D1-nodesc</styleUrl>
      <Point>
        <coordinates>
          -20.273037,63.4443368,0
        </coordinates>
      </Point>
    </Placemark>
    <Placemark>
      <name>Eldfell</name>
      <styleUrl>#icon-1899-0288D1-nodesc</styleUrl>
      <Point>
        <coordinates>
          -20.2494335,63.4320503,0
        </coordinates>
      </Point>
    </Placemark>
    <Placemark>
      <name>Roca de Elefante</name>
      <styleUrl>#icon-1899-0288D1-nodesc</styleUrl>
      <Point>
        <coordinates>
          -20.310901,63.439412,0
        </coordinates>
      </Point>
    </Placemark>
    <Placemark>
      <name>Landeyjahöfn</name>
      <styleUrl>#icon-1899-0288D1-nodesc</styleUrl>
      <Point>
        <coordinates>
          -20.1170353,63.5308305,0
        </coordinates>
      </Point>
    </Placemark>
    <Placemark>
      <name>Dyrhólaey</name>
      <styleUrl>#icon-1899-0288D1-nodesc</styleUrl>
      <Point>
        <coordinates>
          -19.1185522,63.4046799,0
        </coordinates>
      </Point>
    </Placemark>
    <Placemark>
      <name>Fjaðrárgljúfur</name>
      <styleUrl>#icon-1899-0288D1-nodesc</styleUrl>
      <Point>
        <coordinates>
          -18.1718159,63.771279,0
        </coordinates>
      </Point>
    </Placemark>
    <Placemark>
      <name>Fjallsárlón</name>
      <styleUrl>#icon-1899-0288D1-nodesc</styleUrl>
      <Point>
        <coordinates>
          -16.385,64.018611,0
        </coordinates>
      </Point>
    </Placemark>
    <Placemark>
      <name>Diamond Beach</name>
      <styleUrl>#icon-1899-0288D1-nodesc</styleUrl>
      <Point>
        <coordinates>
          -16.1776622,64.044334,0
        </coordinates>
      </Point>
    </Placemark>
    <Placemark>
      <name>Mirador sobre Jökulsárlón</name>
      <styleUrl>#icon-1899-0288D1-nodesc</styleUrl>
      <Point>
        <coordinates>
          -16.1805965,64.0493624,0
        </coordinates>
      </Point>
    </Placemark>
    <Placemark>
      <name>Fauskasandur</name>
      <styleUrl>#icon-1899-0288D1-nodesc</styleUrl>
      <Point>
        <coordinates>
          -14.4827778,64.4838889,0
        </coordinates>
      </Point>
    </Placemark>
    <Placemark>
      <name>Camp Egilsstadir and Egilsstadastofa Visitor Center</name>
      <styleUrl>#icon-1899-0288D1-nodesc</styleUrl>
      <Point>
        <coordinates>
          -14.4068893,65.2583124,0
        </coordinates>
      </Point>
    </Placemark>
    <Placemark>
      <name>Dettifoss (West Side)</name>
      <styleUrl>#icon-1899-0288D1-nodesc</styleUrl>
      <Point>
        <coordinates>
          -16.3873164,65.8160507,0
        </coordinates>
      </Point>
    </Placemark>
    <Placemark>
      <name>Rauðhólar</name>
      <styleUrl>#icon-1899-0288D1-nodesc</styleUrl>
      <Point>
        <coordinates>
          -16.524444,65.950278,0
        </coordinates>
      </Point>
    </Placemark>
    <Placemark>
      <name>Hljóðaklettar</name>
      <styleUrl>#icon-1899-0288D1-nodesc</styleUrl>
      <Point>
        <coordinates>
          -16.5373314,65.9359189,0
        </coordinates>
      </Point>
    </Placemark>
    <Placemark>
      <name>Hverir</name>
      <styleUrl>#icon-1899-0288D1-nodesc</styleUrl>
      <Point>
        <coordinates>
          -16.8093111,65.6409144,0
        </coordinates>
      </Point>
    </Placemark>
    <Placemark>
      <name>Earth Lagoon Mývatn</name>
      <styleUrl>#icon-1899-0288D1-nodesc</styleUrl>
      <Point>
        <coordinates>
          -16.8476117,65.6308946,0
        </coordinates>
      </Point>
    </Placemark>
    <Placemark>
      <name>Bjarnarflag Geothermal Power Station</name>
      <styleUrl>#icon-1899-0288D1-nodesc</styleUrl>
      <Point>
        <coordinates>
          -16.8462263,65.6432709,0
        </coordinates>
      </Point>
    </Placemark>
    <Placemark>
      <name>Lava field Dimmuborgir</name>
      <styleUrl>#icon-1899-0288D1-nodesc</styleUrl>
      <Point>
        <coordinates>
          -16.91228,65.5912203,0
        </coordinates>
      </Point>
    </Placemark>
    <Placemark>
      <name>Hofdi</name>
      <styleUrl>#icon-1899-0288D1-nodesc</styleUrl>
      <Point>
        <coordinates>
          -16.9560178,65.5789247,0
        </coordinates>
      </Point>
    </Placemark>
    <Placemark>
      <name>Skútustaðagígar</name>
      <styleUrl>#icon-1899-0288D1-nodesc</styleUrl>
      <Point>
        <coordinates>
          -17.0347043,65.5708874,0
        </coordinates>
      </Point>
    </Placemark>
    <Placemark>
      <name>Hlíð ferðaþjónusta</name>
      <styleUrl>#icon-1899-0288D1-nodesc</styleUrl>
      <Point>
        <coordinates>
          -16.9186862,65.6494818,0
        </coordinates>
      </Point>
    </Placemark>
    <Placemark>
      <name>Goðafoss</name>
      <styleUrl>#icon-1899-0288D1-nodesc</styleUrl>
      <Point>
        <coordinates>
          -17.5501919,65.6827782,0
        </coordinates>
      </Point>
    </Placemark>
    <Placemark>
      <name>Akureyri</name>
      <styleUrl>#icon-1899-0288D1-nodesc</styleUrl>
      <Point>
        <coordinates>
          -18.0906858,65.6825509,0
        </coordinates>
      </Point>
    </Placemark>
    <Placemark>
      <name>Bryggjan Boutique Hotel</name>
      <styleUrl>#icon-1899-0288D1-nodesc</styleUrl>
      <Point>
        <coordinates>
          -18.0811627,65.6855411,0
        </coordinates>
      </Point>
    </Placemark>
    <Placemark>
      <name>Glaumbær Church</name>
      <styleUrl>#icon-1899-0288D1-nodesc</styleUrl>
      <Point>
        <coordinates>
          -19.5046774,65.6113636,0
        </coordinates>
      </Point>
    </Placemark>
    <Placemark>
      <name>Grábrók</name>
      <styleUrl>#icon-1899-0288D1-nodesc</styleUrl>
      <Point>
        <coordinates>
          -21.5622222,64.7816667,0
        </coordinates>
      </Point>
    </Placemark>
    <Placemark>
      <name>Barnafoss</name>
      <styleUrl>#icon-1899-0288D1-nodesc</styleUrl>
      <Point>
        <coordinates>
          -20.972354,64.701913,0
        </coordinates>
      </Point>
    </Placemark>
    <Placemark>
      <name>Fossatún Country Hotel</name>
      <styleUrl>#icon-1899-0288D1-nodesc</styleUrl>
      <Point>
        <coordinates>
          -21.5776205,64.5926186,0
        </coordinates>
      </Point>
    </Placemark>
    <Placemark>
      <name>Snæfellsnes</name>
      <styleUrl>#icon-1899-0288D1-nodesc</styleUrl>
      <Point>
        <coordinates>
          -22.6532697,64.8443266,0
        </coordinates>
      </Point>
    </Placemark>
    <Placemark>
      <name>Kirkjufellsfoss</name>
      <styleUrl>#icon-1899-0288D1-nodesc</styleUrl>
      <Point>
        <coordinates>
          -23.3113649,64.9262179,0
        </coordinates>
      </Point>
    </Placemark>
    <Placemark>
      <name>Hellissandur Camping</name>
      <styleUrl>#icon-1899-0288D1-nodesc</styleUrl>
      <Point>
        <coordinates>
          -23.8890369,64.9125633,0
        </coordinates>
      </Point>
    </Placemark>
    <Placemark>
      <name>Saxhóll Crater</name>
      <styleUrl>#icon-1899-0288D1-nodesc</styleUrl>
      <Point>
        <coordinates>
          -23.924576,64.850947,0
        </coordinates>
      </Point>
    </Placemark>
    <Placemark>
      <name>Lóndrangar</name>
      <styleUrl>#icon-1899-0288D1-nodesc</styleUrl>
      <Point>
        <coordinates>
          -23.7846095,64.732527,0
        </coordinates>
      </Point>
    </Placemark>
    <Placemark>
      <name>Hellnar View Point</name>
      <styleUrl>#icon-1899-0288D1-nodesc</styleUrl>
      <Point>
        <coordinates>
          -23.6465502,64.7507002,0
        </coordinates>
      </Point>
    </Placemark>
    <Placemark>
      <name>Arnarstapi Cliff Viewpoint</name>
      <styleUrl>#icon-1899-0288D1-nodesc</styleUrl>
      <Point>
        <coordinates>
          -23.6248695,64.7643097,0
        </coordinates>
      </Point>
    </Placemark>
    <Placemark>
      <name>Reikiavik</name>
      <styleUrl>#icon-1899-0288D1-nodesc</styleUrl>
      <Point>
        <coordinates>
          -21.9407552,64.1469868,0
        </coordinates>
      </Point>
    </Placemark>
    <Placemark>
      <name>Aeropuerto Internacional de Keflavík</name>
      <styleUrl>#icon-1899-0288D1-nodesc</styleUrl>
      <Point>
        <coordinates>
          -22.6238372,63.996167,0
        </coordinates>
      </Point>
    </Placemark>
  </Document>
</kml>
